OBJECT_NAME,OBJECT_ID,EPOCH,MEAN_MOTION,ECCENTRICITY,INCLINATION,RA_OF_ASC_NODE,ARG_OF_PERICENTER,MEAN_ANOMALY,EPHEMERIS_TYPE,CLASSIFICATION_TYPE,NORAD_CAT_ID,ELEMENT_SET_NO,REV_AT_EPOCH,BSTAR,MEAN_MOTION_DOT,MEAN_MOTION_DDOT
STARLINK-37578,2026-127J,2026-07-02T13:46:34.330944,15.75290967,.00015459,53.1560,185.6765,65.4366,294.6815,0,U,69451,999,383,.10046001E-2,.156592E-2,0
STARLINK-37577,2026-127K,2026-07-02T13:26:57.549120,15.75294288,.00014655,53.1589,185.5858,141.9532,218.1592,0,U,69452,999,383,.95285611E-3,.148369E-2,0
STARLINK-37500,2026-127L,2026-07-01T17:52:46.986528,15.75308584,.00019092,53.1567,189.7477,82.6122,277.5115,0,U,69453,999,370,.15387157E-2,.242862E-2,0
STARLINK-37575,2026-127M,2026-07-02T13:20:54.357216,15.75283140,.00015469,53.1594,185.5583,66.5930,293.5253,0,U,69454,999,383,.12225465E-2,.191432E-2,0
STARLINK-37642,2026-127N,2026-07-02T13:47:02.381568,15.75311187,.00010123,53.1561,185.6774,94.5736,265.5400,0,U,69455,999,383,.12533504E-2,.196634E-2,0
STARLINK-37513,2026-127P,2026-07-02T11:04:40.030752,15.80954476,.00009604,53.1565,185.6638,124.2271,235.8843,0,U,69456,999,382,.10570677E-2,.213986E-2,0
STARLINK-37563,2026-127Q,2026-07-02T07:21:30.968352,15.78985514,.00128482,53.1588,186.8467,297.2409,62.7304,0,U,69457,999,379,.37159175E-1,.8442893E-1,0
STARLINK-37565,2026-127R,2026-07-02T11:42:31.751136,15.75295799,.00013943,53.1582,185.8387,97.6942,262.4237,0,U,69458,999,382,.11290263E-2,.176522E-2,0
STARLINK-37498,2026-127S,2026-07-02T13:40:02.162208,15.75293002,.00016723,53.1564,185.6441,104.2356,255.8850,0,U,69459,999,383,.97117128E-3,.151278E-2,0
STARLINK-37384,2026-127T,2026-07-02T11:49:03.769536,15.75304734,.00011888,53.1592,185.8697,125.6835,234.4296,0,U,69460,999,382,.11615614E-2,.181812E-2,0
STARLINK-37707,2026-127U,2026-07-02T11:43:00.103296,15.75300604,.00016677,53.1588,185.8402,123.1317,236.9863,0,U,69461,999,382,.13931949E-2,.219133E-2,0
STARLINK-37525,2026-127V,2026-07-02T13:07:21.421344,15.75298968,.00010862,53.1578,185.4923,63.8913,296.2219,0,U,69462,999,383,.10940013E-2,.170935E-2,0
STARLINK-37526,2026-127W,2026-07-02T11:29:56.010336,15.75286618,.00012279,53.1571,185.7800,115.8813,244.2334,0,U,69463,999,382,.11457186E-2,.179125E-2,0
STARLINK-37574,2026-127X,2026-07-02T11:36:27.817920,15.75287805,.0000821,53.1576,185.8085,108.6759,251.4350,0,U,69464,999,382,.96070341E-3,.149574E-2,0
STARLINK-37535,2026-127Y,2026-07-02T11:29:27.350592,15.75291901,.0001622,53.1569,185.7758,108.9547,251.1650,0,U,69465,999,382,.88708552E-3,.137898E-2,0
STARLINK-37583,2026-127Z,2026-07-02T10:50:42.656640,15.75282957,.00003013,53.1586,185.5963,120.9824,239.1226,0,U,69466,999,382,.90394554E-3,.14052E-2,0
STARLINK-37546,2026-127AA,2026-07-02T14:26:07.451232,15.75266430,.00018502,53.1567,185.1150,62.4390,297.6819,0,U,69467,999,384,.64985284E-3,.100286E-2,0
STARLINK-37532,2026-127AB,2026-07-02T14:00:01.999872,15.75255709,.00010169,53.1589,184.7839,85.3799,17.9938,0,U,69468,999,512,-.33601187E-3,-.51867E-3,0
STARLINK-37708,2026-127AC,2026-07-02T14:25:39.165600,15.75268474,.00021446,53.1571,185.1120,49.8380,310.2827,0,U,69469,999,384,.7784861E-3,.120568E-2,0
STARLINK-37686,2026-127AD,2026-07-02T11:16:51.373920,15.75294673,.00012151,53.1577,185.7144,97.2971,262.8187,0,U,69470,999,382,.1176147E-2,.184072E-2,0
STARLINK-37451,2026-127AE,2026-07-02T13:19:44.891616,15.80968349,.00016567,53.1567,184.8091,41.1923,318.9225,0,U,69471,999,384,.10606247E-2,.214869E-2,0
DTC TEST OBJECT A,2026-128A,2026-07-02T12:28:30.058176,15.53302700,.00101195,55.0004,234.1888,337.3377,22.7209,0,U,69472,999,361,.25323519E-3,.15815E-3,0
DTC TEST OBJECT B,2026-128B,2026-06-27T09:02:13.824960,15.56860342,.0009934,55.0021,257.9040,325.3113,34.7274,0,U,69473,999,280,.3356545E-3,.24134E-3,0
TJS-25,2026-129A,2026-07-02T11:26:26.124000,1.00270498,.00024662,5.9682,330.2816,288.4596,313.6399,0,U,69474,999,21,0,-.357E-5,0
STARLINK-37816,2026-131A,2026-07-02T12:10:43.892544,15.80936970,.00004858,97.2822,204.6737,64.4524,295.6795,0,U,69478,999,458,.14098404E-2,.280322E-2,0
STARLINK-37878,2026-131B,2026-07-02T00:09:34.909056,15.81132162,.00003516,97.2826,204.1308,175.9683,184.1589,0,U,69479,999,450,.26378851E-2,.54599E-2,0
STARLINK-37817,2026-131C,2026-07-02T14:00:01.999872,15.80773785,.00017172,97.2833,204.7585,103.0583,337.3815,0,U,69480,999,448,.13450808E-3,.2565E-3,0
STARLINK-37727,2026-131D,2026-07-02T06:02:52.608192,15.80850172,.00016848,97.2851,204.4092,77.9216,282.2241,0,U,69481,999,454,.14159359E-2,.280416E-2,0
STARLINK-37814,2026-131E,2026-07-02T14:00:01.999872,15.80853717,.0001442,97.2838,204.7620,102.6077,346.2882,0,U,69482,999,448,-.13395645E-3,-.2577E-3,0
STARLINK-37869,2026-131F,2026-07-02T12:05:19.327488,15.81015317,.0001057,97.2823,204.6788,27.9484,332.1841,0,U,69483,999,458,.24290904E-2,.497195E-2,0
