STARLINK-37578          
1 69451U 26127J   26183.57400846  .00156592  00000+0  10046-2 0  9997
2 69451  53.1560 185.6765 0001545  65.4366 294.6815 15.75290967  3830
STARLINK-37577          
1 69452U 26127K   26183.56038830  .00148369  00000+0  95286-3 0  9990
2 69452  53.1589 185.5858 0001465 141.9532 218.1592 15.75294288  3833
STARLINK-37500          
1 69453U 26127L   26182.74498827  .00242862  00000+0  15387-2 0  9992
2 69453  53.1567 189.7477 0001909  82.6122 277.5115 15.75308584  3703
STARLINK-37575          
1 69454U 26127M   26183.55618469  .00191432  00000+0  12225-2 0  9993
2 69454  53.1594 185.5583 0001546  66.5930 293.5253 15.75283140  3836
STARLINK-37642          
1 69455U 26127N   26183.57433312  .00196634  00000+0  12534-2 0  9990
2 69455  53.1561 185.6774 0001012  94.5736 265.5400 15.75311187  3833
STARLINK-37513          
1 69456U 26127P   26183.46157443  .00213986  00000+0  10571-2 0  9996
2 69456  53.1565 185.6638 0000960 124.2271 235.8843 15.80954476  3823
STARLINK-37563          
1 69457U 26127Q   26183.30660843  .08442893  00000+0  37159-1 0  9992
2 69457  53.1588 186.8467 0012848 297.2409  62.7304 15.78985514  3793
STARLINK-37565          
1 69458U 26127R   26183.48786749  .00176522  00000+0  11290-2 0  9990
2 69458  53.1582 185.8387 0001394  97.6942 262.4237 15.75295799  3820
STARLINK-37498          
1 69459U 26127S   26183.56946947  .00151278  00000+0  97117-3 0  9992
2 69459  53.1564 185.6441 0001672 104.2356 255.8850 15.75293002  3836
STARLINK-37384          
1 69460U 26127T   26183.49240474  .00181812  00000+0  11616-2 0  9994
2 69460  53.1592 185.8697 0001188 125.6835 234.4296 15.75304734  3826
STARLINK-37707          
1 69461U 26127U   26183.48819564  .00219133  00000+0  13932-2 0  9997
2 69461  53.1588 185.8402 0001667 123.1317 236.9863 15.75300604  3825
STARLINK-37525          
1 69462U 26127V   26183.54677571  .00170935  00000+0  10940-2 0  9997
2 69462  53.1578 185.4923 0001086  63.8913 296.2219 15.75298968  3830
STARLINK-37526          
1 69463U 26127W   26183.47912049  .00179125  00000+0  11457-2 0  9996
2 69463  53.1571 185.7800 0001227 115.8813 244.2334 15.75286618  3824
STARLINK-37574          
1 69464U 26127X   26183.48365530  .00149574  00000+0  96070-3 0  9995
2 69464  53.1576 185.8085 0000821 108.6759 251.4350 15.75287805  3821
STARLINK-37535          
1 69465U 26127Y   26183.47878878  .00137898  00000+0  88709-3 0  9995
2 69465  53.1569 185.7758 0001622 108.9547 251.1650 15.75291901  3820
STARLINK-37583          
1 69466U 26127Z   26183.45188260  .00140520  00000+0  90395-3 0  9993
2 69466  53.1586 185.5963 0000301 120.9824 239.1226 15.75282957  3827
STARLINK-37546          
1 69467U 26127AA  26183.60147513  .00100286  00000+0  64985-3 0  9998
2 69467  53.1567 185.1150 0001850  62.4390 297.6819 15.75266430  3846
STARLINK-37532          
1 69468U 26127AB  26183.58335648 -.00051867  00000+0 -33601-3 0  9997
2 69468  53.1589 184.7839 0001016  85.3799  17.9938 15.75255709  5126
STARLINK-37708          
1 69469U 26127AC  26183.60114775  .00120568  00000+0  77849-3 0  9992
2 69469  53.1571 185.1120 0002144  49.8380 310.2827 15.75268474  3846
STARLINK-37686          
1 69470U 26127AD  26183.47003905  .00184072  00000+0  11761-2 0  9991
2 69470  53.1577 185.7144 0001215  97.2971 262.8187 15.75294673  3826
STARLINK-37451          
1 69471U 26127AE  26183.55538069  .00214869  00000+0  10606-2 0  9990
2 69471  53.1567 184.8091 0001656  41.1923 318.9225 15.80968349  3843
DTC TEST OBJECT A       
1 69472U 26128A   26183.51979234  .00015815  00000+0  25324-3 0  9995
2 69472  55.0004 234.1888 0010119 337.3377  22.7209 15.53302700  3611
DTC TEST OBJECT B       
1 69473U 26128B   26178.37654890  .00024134  00000+0  33565-3 0  9992
2 69473  55.0021 257.9040 0009934 325.3113  34.7274 15.56860342  2801
TJS-25                  
1 69474U 26129A   26183.47669125 -.00000357  00000+0  00000+0 0  9994
2 69474   5.9682 330.2816 0002466 288.4596 313.6399  1.00270498   213
STARLINK-37816          
1 69478U 26131A   26183.50745246  .00280322  00000+0  14098-2 0  9990
2 69478  97.2822 204.6737 0000485  64.4524 295.6795 15.80936970  4585
STARLINK-37878          
1 69479U 26131B   26183.00665404  .00545990  00000+0  26379-2 0  9993
2 69479  97.2826 204.1308 0000351 175.9683 184.1589 15.81132162  4502
STARLINK-37817          
1 69480U 26131C   26183.58335648  .00025650  00000+0  13451-3 0  9996
2 69480  97.2833 204.7585 0001717 103.0583 337.3815 15.80773785  4485
STARLINK-37727          
1 69481U 26131D   26183.25199778  .00280416  00000+0  14159-2 0  9991
2 69481  97.2851 204.4092 0001684  77.9216 282.2241 15.80850172  4545
STARLINK-37814          
1 69482U 26131E   26183.58335648 -.00025770  00000+0 -13396-3 0  9991
2 69482  97.2838 204.7620 0001442 102.6077 346.2882 15.80853717  4487
STARLINK-37869          
1 69483U 26131F   26183.50369592  .00497195  00000+0  24291-2 0  9996
2 69483  97.2823 204.6788 0001057  27.9484 332.1841 15.81015317  4586
